STARLINK-35474          
1 66437U 25259R   25324.25002315 -.01456175  00000+0 -59020-2 0  9991
2 66437  42.9986 180.9862 0001897 275.3295 153.9095 15.88196777  2663
STARLINK-34681          
1 66438U 25259S   25324.25002315 -.01462257  00000+0 -59192-2 0  9990
2 66438  42.9987 180.9812 0001814 275.4176 155.8445 15.88235524  2550
STARLINK-35327          
1 66439U 25259T   25324.25002315 -.01439695  00000+0 -58469-2 0  9997
2 66439  42.9994 180.9984 0001843 277.2656 147.5305 15.88122794  2663
STARLINK-35405          
1 66440U 25259U   25324.25002315 -.01473972  00000+0 -59616-2 0  9990
2 66440  42.9991 180.9764 0001885 276.0146 157.2636 15.88276405  2669
STARLINK-35426          
1 66441U 25259V   25324.25002315 -.01527383  00000+0 -60505-2 0  9996
2 66441  42.9987 180.9705 0001929 275.1934 160.2878 15.88320543  2669
STARLINK-34724          
1 66442U 25259W   25324.25002315 -.01552702  00000+0 -61514-2 0  9991
2 66442  42.9991 180.9654 0001848 275.8544 161.7719 15.88363413  2665
STARLINK-35219          
1 66443U 25259X   25324.25002315 -.01575215  00000+0 -62377-2 0  9994
2 66443  42.9991 180.9607 0001851 277.3378 162.1266 15.88411632  2557
STARLINK-35360          
1 66444U 25259Y   25324.25002315 -.01668224  00000+0 -66187-2 0  9991
2 66444  42.9988 180.9438 0001802 276.7604 169.1407 15.88537897  2665
STARLINK-34698          
1 66445U 25259Z   25324.25002315 -.01622679  00000+0 -64369-2 0  9996
2 66445  42.9984 180.9542 0001837 274.3618 167.5129 15.88460376  2553
STARLINK-34986          
1 66446U 25259AA  25324.25002315 -.01652558  00000+0 -65600-2 0  9995
2 66446  42.9984 180.9484 0001837 274.9652 169.0865 15.88499151  2662
STARLINK-34851          
1 66447U 25259AB  25324.25002315 -.01691131  00000+0 -67142-2 0  9999
2 66447  42.9984 180.9379 0001731 275.7701 172.4180 15.88566277  2553
STARLINK-35355          
1 66448U 25259AC  25324.25002315 -.01704083  00000+0 -67629-2 0  9991
2 66448  42.9989 180.9332 0001759 274.4449 175.7714 15.88596921  2663
