CCSDS_OMM_VERS = 2.0
CREATION_DATE  = 
ORIGINATOR     = 

OBJECT_NAME    = STARLINK-35474
OBJECT_ID      = 2025-259R
CENTER_NAME    = EARTH
REF_FRAME      = TEME
TIME_SYSTEM    = UTC
MEAN_ELEMENT_THEORY = SGP/SGP4

EPOCH          = 2025-11-20T06:00:02.000160
MEAN_MOTION    = 15.88196777
ECCENTRICITY   = .00018977
INCLINATION    = 42.9986
RA_OF_ASC_NODE = 180.9862
ARG_OF_PERICENTER = 275.3295
MEAN_ANOMALY   = 153.9095

EPHEMERIS_TYPE = 0
CLASSIFICATION_TYPE = U
NORAD_CAT_ID   = 66437
ELEMENT_SET_NO = 999
REV_AT_EPOCH   = 266
BSTAR          = -.5901973E-2
MEAN_MOTION_DOT = -.1456175E-1
MEAN_MOTION_DDOT = 0

CCSDS_OMM_VERS = 2.0
CREATION_DATE  = 
ORIGINATOR     = 

OBJECT_NAME    = STARLINK-34681
OBJECT_ID      = 2025-259S
CENTER_NAME    = EARTH
REF_FRAME      = TEME
TIME_SYSTEM    = UTC
MEAN_ELEMENT_THEORY = SGP/SGP4

EPOCH          = 2025-11-20T06:00:02.000160
MEAN_MOTION    = 15.88235524
ECCENTRICITY   = .00018143
INCLINATION    = 42.9987
RA_OF_ASC_NODE = 180.9812
ARG_OF_PERICENTER = 275.4176
MEAN_ANOMALY   = 155.8445

EPHEMERIS_TYPE = 0
CLASSIFICATION_TYPE = U
NORAD_CAT_ID   = 66438
ELEMENT_SET_NO = 999
REV_AT_EPOCH   = 255
BSTAR          = -.59192387E-2
MEAN_MOTION_DOT = -.1462257E-1
MEAN_MOTION_DDOT = 0

CCSDS_OMM_VERS = 2.0
CREATION_DATE  = 
ORIGINATOR     = 

OBJECT_NAME    = STARLINK-35327
OBJECT_ID      = 2025-259T
CENTER_NAME    = EARTH
REF_FRAME      = TEME
TIME_SYSTEM    = UTC
MEAN_ELEMENT_THEORY = SGP/SGP4

EPOCH          = 2025-11-20T06:00:02.000160
MEAN_MOTION    = 15.88122794
ECCENTRICITY   = .00018431
INCLINATION    = 42.9994
RA_OF_ASC_NODE = 180.9984
ARG_OF_PERICENTER = 277.2656
MEAN_ANOMALY   = 147.5305

EPHEMERIS_TYPE = 0
CLASSIFICATION_TYPE = U
NORAD_CAT_ID   = 66439
ELEMENT_SET_NO = 999
REV_AT_EPOCH   = 266
BSTAR          = -.5846936E-2
MEAN_MOTION_DOT = -.1439695E-1
MEAN_MOTION_DDOT = 0

CCSDS_OMM_VERS = 2.0
CREATION_DATE  = 
ORIGINATOR     = 

OBJECT_NAME    = STARLINK-35405
OBJECT_ID      = 2025-259U
CENTER_NAME    = EARTH
REF_FRAME      = TEME
TIME_SYSTEM    = UTC
MEAN_ELEMENT_THEORY = SGP/SGP4

EPOCH          = 2025-11-20T06:00:02.000160
MEAN_MOTION    = 15.88276405
ECCENTRICITY   = .00018852
INCLINATION    = 42.9991
RA_OF_ASC_NODE = 180.9764
ARG_OF_PERICENTER = 276.0146
MEAN_ANOMALY   = 157.2636

EPHEMERIS_TYPE = 0
CLASSIFICATION_TYPE = U
NORAD_CAT_ID   = 66440
ELEMENT_SET_NO = 999
REV_AT_EPOCH   = 266
BSTAR          = -.59615652E-2
MEAN_MOTION_DOT = -.1473972E-1
MEAN_MOTION_DDOT = 0

CCSDS_OMM_VERS = 2.0
CREATION_DATE  = 
ORIGINATOR     = 

OBJECT_NAME    = STARLINK-35426
OBJECT_ID      = 2025-259V
CENTER_NAME    = EARTH
REF_FRAME      = TEME
TIME_SYSTEM    = UTC
MEAN_ELEMENT_THEORY = SGP/SGP4

EPOCH          = 2025-11-20T06:00:02.000160
MEAN_MOTION    = 15.88320543
ECCENTRICITY   = .00019293
INCLINATION    = 42.9987
RA_OF_ASC_NODE = 180.9705
ARG_OF_PERICENTER = 275.1934
MEAN_ANOMALY   = 160.2878

EPHEMERIS_TYPE = 0
CLASSIFICATION_TYPE = U
NORAD_CAT_ID   = 66441
ELEMENT_SET_NO = 999
REV_AT_EPOCH   = 266
BSTAR          = -.60505398E-2
MEAN_MOTION_DOT = -.1527383E-1
MEAN_MOTION_DDOT = 0

CCSDS_OMM_VERS = 2.0
CREATION_DATE  = 
ORIGINATOR     = 

OBJECT_NAME    = STARLINK-34724
OBJECT_ID      = 2025-259W
CENTER_NAME    = EARTH
REF_FRAME      = TEME
TIME_SYSTEM    = UTC
MEAN_ELEMENT_THEORY = SGP/SGP4

EPOCH          = 2025-11-20T06:00:02.000160
MEAN_MOTION    = 15.88363413
ECCENTRICITY   = .00018485
INCLINATION    = 42.9991
RA_OF_ASC_NODE = 180.9654
ARG_OF_PERICENTER = 275.8544
MEAN_ANOMALY   = 161.7719

EPHEMERIS_TYPE = 0
CLASSIFICATION_TYPE = U
NORAD_CAT_ID   = 66442
ELEMENT_SET_NO = 999
REV_AT_EPOCH   = 266
BSTAR          = -.61514208E-2
MEAN_MOTION_DOT = -.1552702E-1
MEAN_MOTION_DDOT = 0

CCSDS_OMM_VERS = 2.0
CREATION_DATE  = 
ORIGINATOR     = 

OBJECT_NAME    = STARLINK-35219
OBJECT_ID      = 2025-259X
CENTER_NAME    = EARTH
REF_FRAME      = TEME
TIME_SYSTEM    = UTC
MEAN_ELEMENT_THEORY = SGP/SGP4

EPOCH          = 2025-11-20T06:00:02.000160
MEAN_MOTION    = 15.88411632
ECCENTRICITY   = .00018513
INCLINATION    = 42.9991
RA_OF_ASC_NODE = 180.9607
ARG_OF_PERICENTER = 277.3378
MEAN_ANOMALY   = 162.1266

EPHEMERIS_TYPE = 0
CLASSIFICATION_TYPE = U
NORAD_CAT_ID   = 66443
ELEMENT_SET_NO = 999
REV_AT_EPOCH   = 255
BSTAR          = -.62377011E-2
MEAN_MOTION_DOT = -.1575215E-1
MEAN_MOTION_DDOT = 0

CCSDS_OMM_VERS = 2.0
CREATION_DATE  = 
ORIGINATOR     = 

OBJECT_NAME    = STARLINK-35360
OBJECT_ID      = 2025-259Y
CENTER_NAME    = EARTH
REF_FRAME      = TEME
TIME_SYSTEM    = UTC
MEAN_ELEMENT_THEORY = SGP/SGP4

EPOCH          = 2025-11-20T06:00:02.000160
MEAN_MOTION    = 15.88537897
ECCENTRICITY   = .00018021
INCLINATION    = 42.9988
RA_OF_ASC_NODE = 180.9438
ARG_OF_PERICENTER = 276.7604
MEAN_ANOMALY   = 169.1407

EPHEMERIS_TYPE = 0
CLASSIFICATION_TYPE = U
NORAD_CAT_ID   = 66444
ELEMENT_SET_NO = 999
REV_AT_EPOCH   = 266
BSTAR          = -.66186992E-2
MEAN_MOTION_DOT = -.1668224E-1
MEAN_MOTION_DDOT = 0

CCSDS_OMM_VERS = 2.0
CREATION_DATE  = 
ORIGINATOR     = 

OBJECT_NAME    = STARLINK-34698
OBJECT_ID      = 2025-259Z
CENTER_NAME    = EARTH
REF_FRAME      = TEME
TIME_SYSTEM    = UTC
MEAN_ELEMENT_THEORY = SGP/SGP4

EPOCH          = 2025-11-20T06:00:02.000160
MEAN_MOTION    = 15.88460376
ECCENTRICITY   = .0001837
INCLINATION    = 42.9984
RA_OF_ASC_NODE = 180.9542
ARG_OF_PERICENTER = 274.3618
MEAN_ANOMALY   = 167.5129

EPHEMERIS_TYPE = 0
CLASSIFICATION_TYPE = U
NORAD_CAT_ID   = 66445
ELEMENT_SET_NO = 999
REV_AT_EPOCH   = 255
BSTAR          = -.64368769E-2
MEAN_MOTION_DOT = -.1622679E-1
MEAN_MOTION_DDOT = 0

CCSDS_OMM_VERS = 2.0
CREATION_DATE  = 
ORIGINATOR     = 

OBJECT_NAME    = STARLINK-34986
OBJECT_ID      = 2025-259AA
CENTER_NAME    = EARTH
REF_FRAME      = TEME
TIME_SYSTEM    = UTC
MEAN_ELEMENT_THEORY = SGP/SGP4

EPOCH          = 2025-11-20T06:00:02.000160
MEAN_MOTION    = 15.88499151
ECCENTRICITY   = .00018379
INCLINATION    = 42.9984
RA_OF_ASC_NODE = 180.9484
ARG_OF_PERICENTER = 274.9652
MEAN_ANOMALY   = 169.0865

EPHEMERIS_TYPE = 0
CLASSIFICATION_TYPE = U
NORAD_CAT_ID   = 66446
ELEMENT_SET_NO = 999
REV_AT_EPOCH   = 266
BSTAR          = -.65600332E-2
MEAN_MOTION_DOT = -.1652558E-1
MEAN_MOTION_DDOT = 0

CCSDS_OMM_VERS = 2.0
CREATION_DATE  = 
ORIGINATOR     = 

OBJECT_NAME    = STARLINK-34851
OBJECT_ID      = 2025-259AB
CENTER_NAME    = EARTH
REF_FRAME      = TEME
TIME_SYSTEM    = UTC
MEAN_ELEMENT_THEORY = SGP/SGP4

EPOCH          = 2025-11-20T06:00:02.000160
MEAN_MOTION    = 15.88566277
ECCENTRICITY   = .00017319
INCLINATION    = 42.9984
RA_OF_ASC_NODE = 180.9379
ARG_OF_PERICENTER = 275.7701
MEAN_ANOMALY   = 172.4180

EPHEMERIS_TYPE = 0
CLASSIFICATION_TYPE = U
NORAD_CAT_ID   = 66447
ELEMENT_SET_NO = 999
REV_AT_EPOCH   = 255
BSTAR          = -.67141613E-2
MEAN_MOTION_DOT = -.1691131E-1
MEAN_MOTION_DDOT = 0

CCSDS_OMM_VERS = 2.0
CREATION_DATE  = 
ORIGINATOR     = 

OBJECT_NAME    = STARLINK-35355
OBJECT_ID      = 2025-259AC
CENTER_NAME    = EARTH
REF_FRAME      = TEME
TIME_SYSTEM    = UTC
MEAN_ELEMENT_THEORY = SGP/SGP4

EPOCH          = 2025-11-20T06:00:02.000160
MEAN_MOTION    = 15.88596921
ECCENTRICITY   = .00017593
INCLINATION    = 42.9989
RA_OF_ASC_NODE = 180.9332
ARG_OF_PERICENTER = 274.4449
MEAN_ANOMALY   = 175.7714

EPHEMERIS_TYPE = 0
CLASSIFICATION_TYPE = U
NORAD_CAT_ID   = 66448
ELEMENT_SET_NO = 999
REV_AT_EPOCH   = 266
BSTAR          = -.67628937E-2
MEAN_MOTION_DOT = -.1704083E-1
MEAN_MOTION_DDOT = 0

